[{"OBJECT_NAME":"STARLINK-11347 [DTC]","OBJECT_ID":"2025-035C","EPOCH":"2026-03-09T05:17:43.704672","MEAN_MOTION":15.70894584,"ECCENTRICITY":0.00026467,"INCLINATION":43.0025,"RA_OF_ASC_NODE":18.4792,"ARG_OF_PERICENTER":281.5716,"MEAN_ANOMALY":78.4855,"EPHEMERIS_TYPE":0,"CLASSIFICATION_TYPE":"U","NORAD_CAT_ID":63054,"ELEMENT_SET_NO":999,"REV_AT_EPOCH":6114,"BSTAR":0.0017134236,"MEAN_MOTION_DOT":0.00226018,"MEAN_MOTION_DDOT":0},{"OBJECT_NAME":"ARIANE 1 DEB","OBJECT_ID":"1979-104J","EPOCH":"2026-03-08T05:24:14.133312","MEAN_MOTION":10.45586815,"ECCENTRICITY":0.24247109,"INCLINATION":17.8139,"RA_OF_ASC_NODE":117.4319,"ARG_OF_PERICENTER":198.4074,"MEAN_ANOMALY":151.0711,"EPHEMERIS_TYPE":0,"CLASSIFICATION_TYPE":"U","NORAD_CAT_ID":25767,"ELEMENT_SET_NO":999,"REV_AT_EPOCH":37261,"BSTAR":0.0065339867,"MEAN_MOTION_DOT":0.00103114,"MEAN_MOTION_DDOT":0}]
